<?xml version="1.0" encoding="UTF-8"?>
<ndm xmlns:xsi="http://www.w3.org/2001/XMLSchema-instance" xsi:noNamespaceSchemaLocation="https://sanaregistry.org/r/ndmxml_unqualified/ndmxml-2.0.0-master-2.0.xsd">
<omm id="CCSDS_OMM_VERS" version="2.0">
<header><CREATION_DATE/><ORIGINATOR/></header><body><segment><metadata><OBJECT_NAME>IRIDIUM 57</OBJECT_NAME><OBJECT_ID>1998-019B</OBJECT_ID><CENTER_NAME>EARTH</CENTER_NAME><REF_FRAME>TEME</REF_FRAME><TIME_SYSTEM>UTC</TIME_SYSTEM><MEAN_ELEMENT_THEORY>SGP4</MEAN_ELEMENT_THEORY></metadata><data><meanElements><EPOCH>2024-08-28T12:16:46.528896</EPOCH><MEAN_MOTION>14.35355596</MEAN_MOTION><ECCENTRICITY>.0002254</ECCENTRICITY><INCLINATION>86.3906</INCLINATION><RA_OF_ASC_NODE>267.8177</RA_OF_ASC_NODE><ARG_OF_PERICENTER>91.0906</ARG_OF_PERICENTER><MEAN_ANOMALY>269.0548</MEAN_ANOMALY></meanElements><tleParameters><EPHEMERIS_TYPE>0</EPHEMERIS_TYPE><CLASSIFICATION_TYPE>U</CLASSIFICATION_TYPE><NORAD_CAT_ID>25273</NORAD_CAT_ID><ELEMENT_SET_NO>999</ELEMENT_SET_NO><REV_AT_EPOCH>38300</REV_AT_EPOCH><BSTAR>.28219E-3</BSTAR><MEAN_MOTION_DOT>.828E-5</MEAN_MOTION_DOT><MEAN_MOTION_DDOT>0</MEAN_MOTION_DDOT></tleParameters></data></segment></body></omm>
<omm id="CCSDS_OMM_VERS" version="2.0">
<header><CREATION_DATE/><ORIGINATOR/></header><body><segment><metadata><OBJECT_NAME>IRIDIUM 63</OBJECT_NAME><OBJECT_ID>1998-021B</OBJECT_ID><CENTER_NAME>EARTH</CENTER_NAME><REF_FRAME>TEME</REF_FRAME><TIME_SYSTEM>UTC</TIME_SYSTEM><MEAN_ELEMENT_THEORY>SGP4</MEAN_ELEMENT_THEORY></metadata><data><meanElements><EPOCH>2024-08-28T08:50:00.397824</EPOCH><MEAN_MOTION>14.35930160</MEAN_MOTION><ECCENTRICITY>.0002502</ECCENTRICITY><INCLINATION>86.4019</INCLINATION><RA_OF_ASC_NODE>204.7970</RA_OF_ASC_NODE><ARG_OF_PERICENTER>91.1383</ARG_OF_PERICENTER><MEAN_ANOMALY>269.0100</MEAN_ANOMALY></meanElements><tleParameters><EPHEMERIS_TYPE>0</EPHEMERIS_TYPE><CLASSIFICATION_TYPE>U</CLASSIFICATION_TYPE><NORAD_CAT_ID>25286</NORAD_CAT_ID><ELEMENT_SET_NO>999</ELEMENT_SET_NO><REV_AT_EPOCH>38208</REV_AT_EPOCH><BSTAR>.45248E-3</BSTAR><MEAN_MOTION_DOT>.1331E-4</MEAN_MOTION_DOT><MEAN_MOTION_DDOT>0</MEAN_MOTION_DDOT></tleParameters></data></segment></body></omm>
<omm id="CCSDS_OMM_VERS" version="2.0">
<header><CREATION_DATE/><ORIGINATOR/></header><body><segment><metadata><OBJECT_NAME>IRIDIUM 69</OBJECT_NAME><OBJECT_ID>1998-026A</OBJECT_ID><CENTER_NAME>EARTH</CENTER_NAME><REF_FRAME>TEME</REF_FRAME><TIME_SYSTEM>UTC</TIME_SYSTEM><MEAN_ELEMENT_THEORY>SGP4</MEAN_ELEMENT_THEORY></metadata><data><meanElements><EPOCH>2024-08-28T05:22:14.077056</EPOCH><MEAN_MOTION>14.40180732</MEAN_MOTION><ECCENTRICITY>.0000091</ECCENTRICITY><INCLINATION>86.3983</INCLINATION><RA_OF_ASC_NODE>219.0165</RA_OF_ASC_NODE><ARG_OF_PERICENTER>74.8996</ARG_OF_PERICENTER><MEAN_ANOMALY>285.2213</MEAN_ANOMALY></meanElements><tleParameters><EPHEMERIS_TYPE>0</EPHEMERIS_TYPE><CLASSIFICATION_TYPE>U</CLASSIFICATION_TYPE><NORAD_CAT_ID>25319</NORAD_CAT_ID><ELEMENT_SET_NO>999</ELEMENT_SET_NO><REV_AT_EPOCH>38112</REV_AT_EPOCH><BSTAR>.34616E-3</BSTAR><MEAN_MOTION_DOT>.1113E-4</MEAN_MOTION_DOT><MEAN_MOTION_DDOT>0</MEAN_MOTION_DDOT></tleParameters></data></segment></body></omm>
<omm id="CCSDS_OMM_VERS" version="2.0">
<header><CREATION_DATE/><ORIGINATOR/></header><body><segment><metadata><OBJECT_NAME>IRIDIUM 71</OBJECT_NAME><OBJECT_ID>1998-026B</OBJECT_ID><CENTER_NAME>EARTH</CENTER_NAME><REF_FRAME>TEME</REF_FRAME><TIME_SYSTEM>UTC</TIME_SYSTEM><MEAN_ELEMENT_THEORY>SGP4</MEAN_ELEMENT_THEORY></metadata><data><meanElements><EPOCH>2024-08-28T05:00:08.166240</EPOCH><MEAN_MOTION>14.40491755</MEAN_MOTION><ECCENTRICITY>.000242</ECCENTRICITY><INCLINATION>86.3992</INCLINATION><RA_OF_ASC_NODE>213.7722</RA_OF_ASC_NODE><ARG_OF_PERICENTER>36.1779</ARG_OF_PERICENTER><MEAN_ANOMALY>323.9583</MEAN_ANOMALY></meanElements><tleParameters><EPHEMERIS_TYPE>0</EPHEMERIS_TYPE><CLASSIFICATION_TYPE>U</CLASSIFICATION_TYPE><NORAD_CAT_ID>25320</NORAD_CAT_ID><ELEMENT_SET_NO>999</ELEMENT_SET_NO><REV_AT_EPOCH>38165</REV_AT_EPOCH><BSTAR>.39786E-3</BSTAR><MEAN_MOTION_DOT>.1284E-4</MEAN_MOTION_DOT><MEAN_MOTION_DDOT>0</MEAN_MOTION_DDOT></tleParameters></data></segment></body></omm>
<omm id="CCSDS_OMM_VERS" version="2.0">
<header><CREATION_DATE/><ORIGINATOR/></header><body><segment><metadata><OBJECT_NAME>IRIDIUM 73</OBJECT_NAME><OBJECT_ID>1998-032C</OBJECT_ID><CENTER_NAME>EARTH</CENTER_NAME><REF_FRAME>TEME</REF_FRAME><TIME_SYSTEM>UTC</TIME_SYSTEM><MEAN_ELEMENT_THEORY>SGP4</MEAN_ELEMENT_THEORY></metadata><data><meanElements><EPOCH>2024-08-27T18:18:33.328800</EPOCH><MEAN_MOTION>14.50787105</MEAN_MOTION><ECCENTRICITY>.0001867</ECCENTRICITY><INCLINATION>86.4490</INCLINATION><RA_OF_ASC_NODE>171.3210</RA_OF_ASC_NODE><ARG_OF_PERICENTER>85.1262</ARG_OF_PERICENTER><MEAN_ANOMALY>275.0156</MEAN_ANOMALY></meanElements><tleParameters><EPHEMERIS_TYPE>0</EPHEMERIS_TYPE><CLASSIFICATION_TYPE>U</CLASSIFICATION_TYPE><NORAD_CAT_ID>25344</NORAD_CAT_ID><ELEMENT_SET_NO>999</ELEMENT_SET_NO><REV_AT_EPOCH>38800</REV_AT_EPOCH><BSTAR>.43327E-3</BSTAR><MEAN_MOTION_DOT>.1725E-4</MEAN_MOTION_DOT><MEAN_MOTION_DDOT>0</MEAN_MOTION_DDOT></tleParameters></data></segment></body></omm>
<omm id="CCSDS_OMM_VERS" version="2.0">
<header><CREATION_DATE/><ORIGINATOR/></header><body><segment><metadata><OBJECT_NAME>IRIDIUM 82</OBJECT_NAME><OBJECT_ID>1998-051A</OBJECT_ID><CENTER_NAME>EARTH</CENTER_NAME><REF_FRAME>TEME</REF_FRAME><TIME_SYSTEM>UTC</TIME_SYSTEM><MEAN_ELEMENT_THEORY>SGP4</MEAN_ELEMENT_THEORY></metadata><data><meanElements><EPOCH>2024-08-27T23:05:49.079040</EPOCH><MEAN_MOTION>15.13434204</MEAN_MOTION><ECCENTRICITY>.0117529</ECCENTRICITY><INCLINATION>86.3709</INCLINATION><RA_OF_ASC_NODE>251.6308</RA_OF_ASC_NODE><ARG_OF_PERICENTER>316.8766</ARG_OF_PERICENTER><MEAN_ANOMALY>42.3310</MEAN_ANOMALY></meanElements><tleParameters><EPHEMERIS_TYPE>0</EPHEMERIS_TYPE><CLASSIFICATION_TYPE>U</CLASSIFICATION_TYPE><NORAD_CAT_ID>25467</NORAD_CAT_ID><ELEMENT_SET_NO>999</ELEMENT_SET_NO><REV_AT_EPOCH>37933</REV_AT_EPOCH><BSTAR>.11877E-2</BSTAR><MEAN_MOTION_DOT>.25267E-3</MEAN_MOTION_DOT><MEAN_MOTION_DDOT>0</MEAN_MOTION_DDOT></tleParameters></data></segment></body></omm>
</ndm>
