IRIDIUM 57              
1 25273U 98019B   24241.51164964  .00000828  00000+0  28219-3 0  9997
2 25273  86.3906 267.8177 0002254  91.0906 269.0548 14.35355596383003
IRIDIUM 63              
1 25286U 98021B   24241.36806016  .00001331  00000+0  45248-3 0  9999
2 25286  86.4019 204.7970 0002502  91.1383 269.0100 14.35930160382087
IRIDIUM 69              
1 25319U 98026A   24241.22377404  .00001113  00000+0  34616-3 0  9995
2 25319  86.3983 219.0165 0000091  74.8996 285.2213 14.40180732381124
IRIDIUM 71              
1 25320U 98026B   24241.20842785  .00001284  00000+0  39786-3 0  9996
2 25320  86.3992 213.7722 0002420  36.1779 323.9583 14.40491755381652
IRIDIUM 73              
1 25344U 98032C   24240.76288575  .00001725  00000+0  43327-3 0  9996
2 25344  86.4490 171.3210 0001867  85.1262 275.0156 14.50787105388005
IRIDIUM 82              
1 25467U 98051A   24240.96237360  .00025267  00000+0  11877-2 0  9992
2 25467  86.3709 251.6308 0117529 316.8766  42.3310 15.13434204379331
